[{"OBJECT_NAME":"HYPSO-2","OBJECT_ID":"2024-149BR","EPOCH":"2026-03-09T15:24:17.277696","MEAN_MOTION":14.98259029,"ECCENTRICITY":0.00013898,"INCLINATION":97.6894,"RA_OF_ASC_NODE":146.3679,"ARG_OF_PERICENTER":74.8032,"MEAN_ANOMALY":285.3344,"EPHEMERIS_TYPE":0,"CLASSIFICATION_TYPE":"U","NORAD_CAT_ID":60531,"ELEMENT_SET_NO":999,"REV_AT_EPOCH":8514,"BSTAR":0.00033979817,"MEAN_MOTION_DOT":3.981e-5,"MEAN_MOTION_DDOT":0},{"OBJECT_NAME":"STARLINK-34574","OBJECT_ID":"2025-142U","EPOCH":"2026-03-09T22:03:05.398272","MEAN_MOTION":14.98338304,"ECCENTRICITY":0.00023816,"INCLINATION":70.0008,"RA_OF_ASC_NODE":313.9339,"ARG_OF_PERICENTER":255.583,"MEAN_ANOMALY":104.5065,"EPHEMERIS_TYPE":0,"CLASSIFICATION_TYPE":"U","NORAD_CAT_ID":64714,"ELEMENT_SET_NO":999,"REV_AT_EPOCH":3952,"BSTAR":0.00047382667,"MEAN_MOTION_DOT":5.566e-5,"MEAN_MOTION_DDOT":0}]
